     2.100          NAVIGATION                              RINEX VERSION / TYPE
fic2rin                                 05/04/2013 00:18:48 PGM / RUN BY / DATE
                                                            END OF HEADER
 9 13  5  3 14  0  0.0  .238335225731D-03  .261479726760D-11  .000000000000D+00
     .770000000000D+02  .953125000000D+01  .392873507616D-08  .760905699257D+00
     .320374965668D-06  .173688671784D-01  .990182161331D-05  .515279555702D+04
     .482400000000D+06 -.245869159698D-06  .217211258098D+01 -.169500708580D-06
     .984006805250D+00  .207187500000D+03  .165352502297D+01 -.806712174229D-08
    -.177864551630D-09  .100000000000D+01  .173800000000D+04  .000000000000D+00
     .240000000000D+01  .000000000000D+00 -.558793544769D-08  .770000000000D+02
     .475206000000D+06  .400000000000D+01
10 13  5  3 14  0  0.0 -.785659067333D-04 -.125055521494D-11  .000000000000D+00
     .530000000000D+02  .521875000000D+02  .519093050881D-08 -.225272368129D+01
     .243820250034D-05  .123709847685D-01  .635720789433D-05  .515362979698D+04
     .482400000000D+06  .203028321266D-06  .981158762686D-01 -.800937414169D-07
     .944065183030D+00  .245781250000D+03  .801225395099D+00 -.832106089130D-08
     .328227957726D-09  .100000000000D+01  .173800000000D+04  .000000000000D+00
     .340000000000D+01  .000000000000D+00 -.279396772385D-08  .530000000000D+02
     .475206000000D+06  .400000000000D+01
12 13  5  3 14  0  0.0  .131756067276D-03  .204636307899D-11  .000000000000D+00
     .220000000000D+02  .128125000000D+02  .422696178421D-08 -.731715445285D-01
     .590458512306D-06  .451182341203D-02  .534951686859D-05  .515357626915D+04
     .482400000000D+06  .968575477600D-07 -.302929833329D+01 -.931322574615D-08
     .984100437859D+00  .287468750000D+03  .232927829556D+00 -.814855370568D-08
     .143577409147D-09  .100000000000D+01  .173800000000D+04  .000000000000D+00
     .240000000000D+01  .000000000000D+00 -.121071934700D-07  .220000000000D+02
     .475206000000D+06  .400000000000D+01
13 13  5  3 14  0  0.0  .122766010463D-03 -.363797880709D-11  .000000000000D+00
     .101000000000D+03 -.185937500000D+02  .431696553323D-08  .265287956512D+01
    -.769272446632D-06  .517353694886D-02  .685267150402D-05  .515376024437D+04
     .482400000000D+06  .113621354103D-06  .122777987851D+01  .745058059692D-08
     .981710170158D+00  .257968750000D+03  .209878099906D+01 -.798140388608D-08
    -.355729103259D-09  .100000000000D+01  .173800000000D+04  .000000000000D+00
     .340000000000D+01  .000000000000D+00 -.111758708954D-07  .101000000000D+03
     .475206000000D+06  .400000000000D+01
14 13  5  3 14  0  0.0  .221009366214D-03 -.113686837722D-12  .000000000000D+00
     .550000000000D+02 -.162500000000D+02  .439911181209D-08  .281218025649D+01
    -.849366188049D-06  .682475627400D-02  .732205808163D-05  .515373741722D+04
     .482400000000D+06  .502914190292D-07  .119868699636D+01 -.130385160446D-06
     .974413652651D+00  .242187500000D+03 -.203233277733D+01 -.795033116320D-08
    -.436803908922D-09  .100000000000D+01  .173800000000D+04  .000000000000D+00
     .240000000000D+01  .000000000000D+00 -.884756445885D-08  .550000000000D+02
     .475206000000D+06  .400000000000D+01
15 13  5  3 14  0  0.0 -.117655377835D-03 -.147792889038D-11  .000000000000D+00
     .790000000000D+02 -.931250000000D+01  .530772108789D-08  .228886136394D+01
    -.430271029472D-06  .539267144632D-02  .675208866596D-05  .515374735641D+04
     .482400000000D+06 -.149011611938D-06  .109955120287D+01  .124797224998D-06
     .941113419574D+00  .240656250000D+03  .168114993704D+00 -.844392315186D-08
    -.305369862738D-09  .100000000000D+01  .173800000000D+04  .000000000000D+00
     .240000000000D+01  .000000000000D+00 -.102445483208D-07  .790000000000D+02
     .475206000000D+06  .400000000000D+01
16 13  5  3 14  0  0.0 -.252304598689D-03  .227373675443D-12  .000000000000D+00
     .950000000000D+02  .174062500000D+02  .409731352670D-08 -.227070420698D+01
     .894069671631D-06  .715265597682D-02  .599958002567D-05  .515362899208D+04
     .482400000000D+06 -.782310962677D-07 -.301094009824D+01 -.763684511185D-07
     .984803213464D+00  .278562500000D+03  .823387480479D-01 -.800247619240D-08
     .273939982128D-09  .100000000000D+01  .173800000000D+04  .000000000000D+00
     .340000000000D+01  .000000000000D+00 -.102445483208D-07  .950000000000D+02
     .475206000000D+06  .400000000000D+01
17 13  5  3 14  0  0.0  .233342871070D-04 -.397903932026D-11  .000000000000D+00
     .650000000000D+02 -.628750000000D+02  .432946605392D-08  .297719784008D+01
    -.323913991451D-05  .832503498532D-02  .690668821335D-05  .515362326813D+04
     .482400000000D+06 -.745058059692D-08 -.197416565062D+01 -.987201929092D-07
     .965019312082D+00  .247218750000D+03 -.219434524777D+01 -.794747390133D-08
    -.657170230921D-10  .100000000000D+01  .173800000000D+04  .000000000000D+00
     .240000000000D+01  .000000000000D+00 -.102445483208D-07  .650000000000D+02
     .475206000000D+06  .400000000000D+01
20 13  5  3 14  0  0.0  .960989855230D-04  .193267624127D-11  .000000000000D+00
     .500000000000D+02  .548750000000D+02  .557630370400D-08 -.127736795475D+01
     .302307307720D-05  .544461177196D-02  .695697963238D-05  .515375039673D+04
     .482400000000D+06  .111758708954D-07  .282076031199D-01  .128522515297D-06
     .928571010961D+00  .231156250000D+03  .129933596942D+01 -.859964392397D-08
     .254653464482D-09  .100000000000D+01  .173800000000D+04  .000000000000D+00
     .240000000000D+01  .000000000000D+00 -.791624188423D-08  .500000000000D+02
     .475206000000D+06  .400000000000D+01
21 13  5  3 14  0  0.0 -.295422971249D-03 -.216004991671D-11  .000000000000D+00
     .470000000000D+02  .390625000000D+01  .519200198201D-08 -.739422826260D+00
     .532716512680D-06  .203246985329D-01  .110231339931D-04  .515369700432D+04
     .482400000000D+06  .130385160446D-07 -.966041139880D+00  .422820448875D-06
     .931414363410D+00  .154000000000D+03 -.214293125520D+01 -.860392981678D-08
     .217151902391D-09  .100000000000D+01  .173800000000D+04  .000000000000D+00
     .240000000000D+01  .000000000000D+00 -.111758708954D-07  .470000000000D+02
     .475206000000D+06  .400000000000D+01
23 13  5  3 14  0  0.0  .893222168088D-04 -.363797880709D-11  .000000000000D+00
     .610000000000D+02 -.151250000000D+02  .498913638899D-08  .181576519222D+01
    -.618398189545D-06  .844830041751D-02  .655092298985D-05  .515371829987D+04
     .482400000000D+06 -.596046447754D-07  .114038274742D+01  .137835741043D-06
     .956010741548D+00  .254843750000D+03 -.290027206886D+01 -.840142138149D-08
    -.381444460121D-09  .100000000000D+01  .173800000000D+04  .000000000000D+00
     .240000000000D+01  .000000000000D+00 -.200234353542D-07  .610000000000D+02
     .475206000000D+06  .400000000000D+01
24 13  5  3 14  0  0.0 -.563962385058D-05 -.682121026330D-12  .000000000000D+00
     .490000000000D+02  .231562500000D+02  .449411576939D-08  .890927330219D+00
     .131502747536D-05  .925445696339D-03  .938028097153D-05  .515368938255D+04
     .482400000000D+06  .149011611938D-07  .216736951530D+01  .130385160446D-07
     .958910321252D+00  .194812500000D+03  .397783811898D+00 -.810033741157D-08
    -.122862260563D-09  .100000000000D+01  .173800000000D+04  .000000000000D+00
     .240000000000D+01  .000000000000D+00  .279396772385D-08  .490000000000D+02
     .475206000000D+06  .400000000000D+01
25 13  5  3 14  0  0.0  .936980359256D-04  .397903932026D-11  .000000000000D+00
     .860000000000D+02  .169687500000D+02  .439982612756D-08 -.930095343804D+00
     .810250639915D-06  .254606979433D-02  .543892383575D-05  .515354573059D+04
     .482400000000D+06  .102445483208D-06 -.306727081072D+01 -.372529029846D-08
     .972928034472D+00  .282062500000D+03  .610345132948D+00 -.821748514838D-08
     .125719522437D-09  .100000000000D+01  .173800000000D+04  .000000000000D+00
     .340000000000D+01  .000000000000D+00  .558793544769D-08  .860000000000D+02
     .475206000000D+06  .400000000000D+01
26 13  5  3 14  0  0.0 -.247638672590D-05  .152340362547D-10  .000000000000D+00
     .830000000000D+02 -.180000000000D+02  .427767818247D-08  .175791894781D+01
    -.138022005558D-05  .212458787719D-01  .738352537155D-05  .515366513824D+04
     .482400000000D+06 -.180676579475D-06  .122047716408D+01 -.471249222755D-06
     .979175219858D+00  .249125000000D+03  .123633290513D+01 -.790997233924D-08
    -.314298806093D-09  .100000000000D+01  .173800000000D+04  .000000000000D+00
     .240000000000D+01  .000000000000D+00 -.605359673500D-08  .830000000000D+02
     .475206000000D+06  .400000000000D+01
27 13  5  3 14  0  0.0 -.177253037691D-03  .125055521494D-11  .000000000000D+00
     .830000000000D+02  .178125000000D+02  .546772775281D-08 -.233613052192D+01
     .955536961555D-06  .618106697220D-02  .566616654396D-05  .515366397858D+04
     .482400000000D+06 -.242143869400D-07 -.305076226735D+01 -.726431608200D-07
     .977762734417D+00  .280187500000D+03  .843389694589D+00 -.799461872225D-08
     .254296306748D-09  .100000000000D+01  .173800000000D+04  .000000000000D+00
     .485000000000D+01  .630000000000D+02 -.190921127796D-07  .830000000000D+02
     .475206000000D+06  .400000000000D+01
28 13  5  3 14  0  0.0  .255316030234D-03  .329691829393D-11  .000000000000D+00
     .870000000000D+02  .160937500000D+02  .394945022474D-08 -.251009414800D+01
     .845640897751D-06  .185681586154D-01  .562146306038D-05  .515364423180D+04
     .482400000000D+06  .217929482460D-06 -.300466631993D+01  .745058059692D-08
     .983239749025D+00  .281531250000D+03 -.177086350529D+01 -.765746182116D-08
     .248938940735D-09  .100000000000D+01  .173800000000D+04  .000000000000D+00
     .340000000000D+01  .000000000000D+00 -.107102096081D-07  .870000000000D+02
     .475206000000D+06  .400000000000D+01
